SL-14 R/B               
1 16792U 86046B   26044.22256502  .00000490  00000+0  53721-4 0  9993
2 16792  82.4806 103.3048 0021894 311.4433  48.4902 14.85566537122773
SL-14 R/B               
1 16882U 86055B   26044.28017546  .00000568  00000+0  62582-4 0  9993
2 16882  82.5235 149.6104 0020123  55.8560 332.5065 14.85617560115749
AJISAI (EGS)            
1 16908U 86061A   26044.29129525 -.00000111  00000+0 -96115-4 0  9996
2 16908  50.0080 168.3725 0011235 224.1315 156.3991 12.44515345464968
COSMOS 1812             
1 17295U 87003A   26044.19000712  .00344116  46881-4  75923-3 0  9997
2 17295  82.4761 223.4837 0002069 307.2694  52.8394 15.97999899140541
SL-14 R/B               
1 17567U 87024B   26044.26489521  .00000502  00000+0  54458-4 0  9996
2 17567  82.5283 115.7212 0017756 346.5216  13.5524 14.86108809 84500
COSMOS 1833             
1 17589U 87027A   26044.22552158  .00000005  00000+0  28622-4 0  9998
2 17589  70.9221  17.4322 0024908 247.4573 112.3911 14.13057173  6867
SL-16 R/B               
1 17590U 87027B   26044.19945981 -.00000087  00000+0 -19177-4 0  9993
2 17590  71.0045 328.1009 0004812 185.9963 174.1104 14.17162828 11875
SL-14 R/B               
1 17912U 87038B   26044.24727653  .00000553  00000+0  61345-4 0  9993
2 17912  82.5039 319.8287 0017763 243.7031 116.2360 14.85345727 75604
COSMOS 1844             
1 17973U 87041A   26044.21589752  .00000444  00000+0  25513-3 0  9992
2 17973  70.8979  85.7999 0028948  57.0850 303.3050 14.14544971   129
SL-14 R/B               
1 18153U 87055B   26043.95907031  .00000597  00000+0  65837-4 0  9995
2 18153  82.5003  12.3347 0022336  94.8155 265.5612 14.85598190 66263
COSMOS 1867             
1 18187U 87060A   26044.19927577 -.00000001  00000+0  37394-4 0  9990
2 18187  65.0118  15.2870 0014160 276.9431  83.0043 14.31499091 16438
SL-14 R/B               
1 18749U 88001B   26043.95265603  .00000557  00000+0  61607-4 0  9997
2 18749  82.5111 218.6261 0017137 324.2272  35.7795 14.85497298 38358
