CCSDS_OMM_VERS = 2.0
CREATION_DATE  = 
ORIGINATOR     = 

OBJECT_NAME    = SL-14 R/B
OBJECT_ID      = 1986-046B
CENTER_NAME    = EARTH
REF_FRAME      = TEME
TIME_SYSTEM    = UTC
MEAN_ELEMENT_THEORY = SGP/SGP4

EPOCH          = 2026-02-13T05:20:29.617728
MEAN_MOTION    = 14.85566537
ECCENTRICITY   = .00218941
INCLINATION    = 82.4806
RA_OF_ASC_NODE = 103.3048
ARG_OF_PERICENTER = 311.4433
MEAN_ANOMALY   = 48.4902

EPHEMERIS_TYPE = 0
CLASSIFICATION_TYPE = U
NORAD_CAT_ID   = 16792
ELEMENT_SET_NO = 999
REV_AT_EPOCH   = 12277
BSTAR          = .53721357E-4
MEAN_MOTION_DOT = .49E-5
MEAN_MOTION_DDOT = 0

CCSDS_OMM_VERS = 2.0
CREATION_DATE  = 
ORIGINATOR     = 

OBJECT_NAME    = SL-14 R/B
OBJECT_ID      = 1986-055B
CENTER_NAME    = EARTH
REF_FRAME      = TEME
TIME_SYSTEM    = UTC
MEAN_ELEMENT_THEORY = SGP/SGP4

EPOCH          = 2026-02-13T06:43:27.159744
MEAN_MOTION    = 14.85617560
ECCENTRICITY   = .00201236
INCLINATION    = 82.5235
RA_OF_ASC_NODE = 149.6104
ARG_OF_PERICENTER = 55.8560
MEAN_ANOMALY   = 332.5065

EPHEMERIS_TYPE = 0
CLASSIFICATION_TYPE = U
NORAD_CAT_ID   = 16882
ELEMENT_SET_NO = 999
REV_AT_EPOCH   = 11574
BSTAR          = .62581924E-4
MEAN_MOTION_DOT = .568E-5
MEAN_MOTION_DDOT = 0

CCSDS_OMM_VERS = 2.0
CREATION_DATE  = 
ORIGINATOR     = 

OBJECT_NAME    = AJISAI (EGS)
OBJECT_ID      = 1986-061A
CENTER_NAME    = EARTH
REF_FRAME      = TEME
TIME_SYSTEM    = UTC
MEAN_ELEMENT_THEORY = SGP/SGP4

EPOCH          = 2026-02-13T06:59:27.909600
MEAN_MOTION    = 12.44515345
ECCENTRICITY   = .00112358
INCLINATION    = 50.0080
RA_OF_ASC_NODE = 168.3725
ARG_OF_PERICENTER = 224.1315
MEAN_ANOMALY   = 156.3991

EPHEMERIS_TYPE = 0
CLASSIFICATION_TYPE = U
NORAD_CAT_ID   = 16908
ELEMENT_SET_NO = 999
REV_AT_EPOCH   = 46496
BSTAR          = -.96114547E-4
MEAN_MOTION_DOT = -.111E-5
MEAN_MOTION_DDOT = 0

CCSDS_OMM_VERS = 2.0
CREATION_DATE  = 
ORIGINATOR     = 

OBJECT_NAME    = COSMOS 1812
OBJECT_ID      = 1987-003A
CENTER_NAME    = EARTH
REF_FRAME      = TEME
TIME_SYSTEM    = UTC
MEAN_ELEMENT_THEORY = SGP/SGP4

EPOCH          = 2026-02-13T04:33:36.615168
MEAN_MOTION    = 15.97999899
ECCENTRICITY   = .00020696
INCLINATION    = 82.4761
RA_OF_ASC_NODE = 223.4837
ARG_OF_PERICENTER = 307.2694
MEAN_ANOMALY   = 52.8394

EPHEMERIS_TYPE = 0
CLASSIFICATION_TYPE = U
NORAD_CAT_ID   = 17295
ELEMENT_SET_NO = 999
REV_AT_EPOCH   = 14054
BSTAR          = .75922663E-3
MEAN_MOTION_DOT = .344116E-2
MEAN_MOTION_DDOT = .46880551E-4

CCSDS_OMM_VERS = 2.0
CREATION_DATE  = 
ORIGINATOR     = 

OBJECT_NAME    = SL-14 R/B
OBJECT_ID      = 1987-024B
CENTER_NAME    = EARTH
REF_FRAME      = TEME
TIME_SYSTEM    = UTC
MEAN_ELEMENT_THEORY = SGP/SGP4

EPOCH          = 2026-02-13T06:21:26.946144
MEAN_MOTION    = 14.86108809
ECCENTRICITY   = .00177569
INCLINATION    = 82.5283
RA_OF_ASC_NODE = 115.7212
ARG_OF_PERICENTER = 346.5216
MEAN_ANOMALY   = 13.5524

EPHEMERIS_TYPE = 0
CLASSIFICATION_TYPE = U
NORAD_CAT_ID   = 17567
ELEMENT_SET_NO = 999
REV_AT_EPOCH   = 8450
BSTAR          = .54458143E-4
MEAN_MOTION_DOT = .502E-5
MEAN_MOTION_DDOT = 0

CCSDS_OMM_VERS = 2.0
CREATION_DATE  = 
ORIGINATOR     = 

OBJECT_NAME    = COSMOS 1833
OBJECT_ID      = 1987-027A
CENTER_NAME    = EARTH
REF_FRAME      = TEME
TIME_SYSTEM    = UTC
MEAN_ELEMENT_THEORY = SGP/SGP4

EPOCH          = 2026-02-13T05:24:45.064512
MEAN_MOTION    = 14.13057173
ECCENTRICITY   = .00249085
INCLINATION    = 70.9221
RA_OF_ASC_NODE = 17.4322
ARG_OF_PERICENTER = 247.4573
MEAN_ANOMALY   = 112.3911

EPHEMERIS_TYPE = 0
CLASSIFICATION_TYPE = U
NORAD_CAT_ID   = 17589
ELEMENT_SET_NO = 999
REV_AT_EPOCH   = 686
BSTAR          = .28622373E-4
MEAN_MOTION_DOT = .5E-7
MEAN_MOTION_DDOT = 0

CCSDS_OMM_VERS = 2.0
CREATION_DATE  = 
ORIGINATOR     = 

OBJECT_NAME    = SL-16 R/B
OBJECT_ID      = 1987-027B
CENTER_NAME    = EARTH
REF_FRAME      = TEME
TIME_SYSTEM    = UTC
MEAN_ELEMENT_THEORY = SGP/SGP4

EPOCH          = 2026-02-13T04:47:13.327584
MEAN_MOTION    = 14.17162828
ECCENTRICITY   = .00048124
INCLINATION    = 71.0045
RA_OF_ASC_NODE = 328.1009
ARG_OF_PERICENTER = 185.9963
MEAN_ANOMALY   = 174.1104

EPHEMERIS_TYPE = 0
CLASSIFICATION_TYPE = U
NORAD_CAT_ID   = 17590
ELEMENT_SET_NO = 999
REV_AT_EPOCH   = 1187
BSTAR          = -.19177475E-4
MEAN_MOTION_DOT = -.87E-6
MEAN_MOTION_DDOT = 0

CCSDS_OMM_VERS = 2.0
CREATION_DATE  = 
ORIGINATOR     = 

OBJECT_NAME    = SL-14 R/B
OBJECT_ID      = 1987-038B
CENTER_NAME    = EARTH
REF_FRAME      = TEME
TIME_SYSTEM    = UTC
MEAN_ELEMENT_THEORY = SGP/SGP4

EPOCH          = 2026-02-13T05:56:04.692192
MEAN_MOTION    = 14.85345727
ECCENTRICITY   = .00177635
INCLINATION    = 82.5039
RA_OF_ASC_NODE = 319.8287
ARG_OF_PERICENTER = 243.7031
MEAN_ANOMALY   = 116.2360

EPHEMERIS_TYPE = 0
CLASSIFICATION_TYPE = U
NORAD_CAT_ID   = 17912
ELEMENT_SET_NO = 999
REV_AT_EPOCH   = 7560
BSTAR          = .61345335E-4
MEAN_MOTION_DOT = .553E-5
MEAN_MOTION_DDOT = 0

CCSDS_OMM_VERS = 2.0
CREATION_DATE  = 
ORIGINATOR     = 

OBJECT_NAME    = COSMOS 1844
OBJECT_ID      = 1987-041A
CENTER_NAME    = EARTH
REF_FRAME      = TEME
TIME_SYSTEM    = UTC
MEAN_ELEMENT_THEORY = SGP/SGP4

EPOCH          = 2026-02-13T05:10:53.545728
MEAN_MOTION    = 14.14544971
ECCENTRICITY   = .00289482
INCLINATION    = 70.8979
RA_OF_ASC_NODE = 85.7999
ARG_OF_PERICENTER = 57.0850
MEAN_ANOMALY   = 303.3050

EPHEMERIS_TYPE = 0
CLASSIFICATION_TYPE = U
NORAD_CAT_ID   = 17973
ELEMENT_SET_NO = 999
REV_AT_EPOCH   = 12
BSTAR          = .25512665E-3
MEAN_MOTION_DOT = .444E-5
MEAN_MOTION_DDOT = 0

CCSDS_OMM_VERS = 2.0
CREATION_DATE  = 
ORIGINATOR     = 

OBJECT_NAME    = SL-14 R/B
OBJECT_ID      = 1987-055B
CENTER_NAME    = EARTH
REF_FRAME      = TEME
TIME_SYSTEM    = UTC
MEAN_ELEMENT_THEORY = SGP/SGP4

EPOCH          = 2026-02-12T23:01:03.674784
MEAN_MOTION    = 14.85598190
ECCENTRICITY   = .0022336
INCLINATION    = 82.5003
RA_OF_ASC_NODE = 12.3347
ARG_OF_PERICENTER = 94.8155
MEAN_ANOMALY   = 265.5612

EPHEMERIS_TYPE = 0
CLASSIFICATION_TYPE = U
NORAD_CAT_ID   = 18153
ELEMENT_SET_NO = 999
REV_AT_EPOCH   = 6626
BSTAR          = .65837E-4
MEAN_MOTION_DOT = .597E-5
MEAN_MOTION_DDOT = 0

CCSDS_OMM_VERS = 2.0
CREATION_DATE  = 
ORIGINATOR     = 

OBJECT_NAME    = COSMOS 1867
OBJECT_ID      = 1987-060A
CENTER_NAME    = EARTH
REF_FRAME      = TEME
TIME_SYSTEM    = UTC
MEAN_ELEMENT_THEORY = SGP/SGP4

EPOCH          = 2026-02-13T04:46:57.426528
MEAN_MOTION    = 14.31499091
ECCENTRICITY   = .001416
INCLINATION    = 65.0118
RA_OF_ASC_NODE = 15.2870
ARG_OF_PERICENTER = 276.9431
MEAN_ANOMALY   = 83.0043

EPHEMERIS_TYPE = 0
CLASSIFICATION_TYPE = U
NORAD_CAT_ID   = 18187
ELEMENT_SET_NO = 999
REV_AT_EPOCH   = 1643
BSTAR          = .37393649E-4
MEAN_MOTION_DOT = -.1E-7
MEAN_MOTION_DDOT = 0

CCSDS_OMM_VERS = 2.0
CREATION_DATE  = 
ORIGINATOR     = 

OBJECT_NAME    = SL-14 R/B
OBJECT_ID      = 1988-001B
CENTER_NAME    = EARTH
REF_FRAME      = TEME
TIME_SYSTEM    = UTC
MEAN_ELEMENT_THEORY = SGP/SGP4

EPOCH          = 2026-02-12T22:51:49.480992
MEAN_MOTION    = 14.85497298
ECCENTRICITY   = .0017137
INCLINATION    = 82.5111
RA_OF_ASC_NODE = 218.6261
ARG_OF_PERICENTER = 324.2272
MEAN_ANOMALY   = 35.7795

EPHEMERIS_TYPE = 0
CLASSIFICATION_TYPE = U
NORAD_CAT_ID   = 18749
ELEMENT_SET_NO = 999
REV_AT_EPOCH   = 3835
BSTAR          = .61607E-4
MEAN_MOTION_DOT = .557E-5
MEAN_MOTION_DDOT = 0

